[{"OBJECT_NAME":"STARLINK-35110","OBJECT_ID":"2025-200V","EPOCH":"2026-03-09T22:45:37.744128","MEAN_MOTION":15.05660801,"ECCENTRICITY":0.00010456,"INCLINATION":97.6033,"RA_OF_ASC_NODE":140.1141,"ARG_OF_PERICENTER":80.0162,"MEAN_ANOMALY":280.1182,"EPHEMERIS_TYPE":0,"CLASSIFICATION_TYPE":"U","NORAD_CAT_ID":65539,"ELEMENT_SET_NO":999,"REV_AT_EPOCH":2917,"BSTAR":0.00028334924,"MEAN_MOTION_DOT":4.031e-5,"MEAN_MOTION_DDOT":0},{"OBJECT_NAME":"CZ-6A DEB","OBJECT_ID":"2024-140HV","EPOCH":"2026-03-09T13:53:09.132288","MEAN_MOTION":14.808573,"ECCENTRICITY":0.0152423,"INCLINATION":88.8878,"RA_OF_ASC_NODE":271.6068,"ARG_OF_PERICENTER":149.3328,"MEAN_ANOMALY":211.6917,"EPHEMERIS_TYPE":0,"CLASSIFICATION_TYPE":"U","NORAD_CAT_ID":60842,"ELEMENT_SET_NO":999,"REV_AT_EPOCH":8460,"BSTAR":0.00072437,"MEAN_MOTION_DOT":6.859e-5,"MEAN_MOTION_DDOT":0}]
